NORAD_CAT_ID,OBJECT_NAME,OBJECT_TYPE,EPOCH,MEAN_MOTION,ECCENTRICITY,INCLINATION,RA_OF_ASC_NODE,ARG_OF_PERICENTER,MEAN_ANOMALY,BSTAR,MEAN_MOTION_DOT,MEAN_MOTION_DDOT,TLE_LINE0,TLE_LINE1,TLE_LINE2,SEMIMAJOR_AXIS,PERIOD,APOGEE,PERIGEE,DECAYED
49413.0,STARLINK-3157,PAYLOAD,2023-06-18 15:38:33,15.08840464,0.0001054,53.2175,6.0286,114.6085,245.5017,0.00033839,5.102e-05,0.0,0 STARLINK-3157,1 49413U 21104F   23169.65177378  .00005102  00000-0  33839-3 0  9991,2 49413  53.2175   6.0286 0001054 114.6085 245.5017 15.08840464 88553,6917.879,95.438,540.473,539.015,0.0
49413.0,STARLINK-3157,PAYLOAD,2023-06-18 23:35:28,15.08854708,9.81e-05,53.217,4.542,113.6005,246.509,0.0010481,0.00016439,0.0,0 STARLINK-3157,1 49413U 21104F   23169.98297449  .00016439  00000-0  10481-2 0  9991,2 49413  53.2170   4.5420 0000981 113.6005 246.5090 15.08854708 89694,6917.835,95.437,540.379,539.022,0.0
49413.0,STARLINK-3157,PAYLOAD,2023-06-19 05:57:01,15.08855939,6.17e-05,53.2166,3.3517,129.4467,230.658,0.00086373,0.00013491,0.0,0 STARLINK-3157,1 49413U 21104F   23170.24793159  .00013491  00000-0  86373-3 0  9990,2 49413  53.2166   3.3517 0000617 129.4467 230.6580 15.08855939 88645,6917.832,95.437,540.124,539.27,0.0
49413.0,STARLINK-3157,PAYLOAD,2023-06-19 18:40:06,15.08853834,9.79e-05,53.2169,0.9737,108.3561,251.7538,0.00041041,6.252e-05,0.0,0 STARLINK-3157,1 49413U 21104F   23170.77785071  .00006252  00000-0  41041-3 0  9992,2 49413  53.2169   0.9737 0000979 108.3561 251.7538 15.08853834 89816,6917.838,95.437,540.38,539.026,0.0
49413.0,STARLINK-3157,PAYLOAD,2023-06-20 12:09:20,15.08846697,0.0001066,53.217,357.7023,137.5491,222.5583,0.00032279,4.854e-05,0.0,0 STARLINK-3157,1 49413U 21104F   23171.50648973  .00004854  00000-0  32279-3 0  9992,2 49413  53.2170 357.7023 0001066 137.5491 222.5583 15.08846697 88839,6917.86,95.437,540.462,538.987,0.0
49413.0,STARLINK-3157,PAYLOAD,2023-06-20 16:55:30,15.0884177,9.71e-05,53.2169,356.8102,103.4125,256.6975,0.00021323,3.108e-05,0.0,0 STARLINK-3157,1 49413U 21104F   23171.70521224  .00003108  00000-0  21323-3 0  9992,2 49413  53.2169 356.8102 0000971 103.4125 256.6975 15.08841770 89959,6917.875,95.437,540.412,539.068,0.0
49413.0,STARLINK-3157,PAYLOAD,2023-06-20 20:06:16,15.08847338,8.84e-05,53.2173,356.2146,115.487,244.6213,0.00030833,4.624e-05,0.0,0 STARLINK-3157,1 49413U 21104F   23171.83769072  .00004624  00000-0  30833-3 0  9991,2 49413  53.2173 356.2146 0000884 115.4870 244.6213 15.08847338 88888,6917.858,95.437,540.334,539.111,0.0
49413.0,STARLINK-3157,PAYLOAD,2023-06-21 12:00:08,15.08839119,8.11e-05,53.2181,353.2426,89.0747,271.0338,0.00019517,2.82e-05,0.0,0 STARLINK-3157,1 49413U 21104F   23172.50009377  .00002820  00000-0  19517-3 0  9993,2 49413  53.2181 353.2426 0000811  89.0747 271.0338 15.08839119 88985,6917.883,95.438,540.309,539.187,0.0
49413.0,STARLINK-3157,PAYLOAD,2023-06-21 18:21:40,15.08848453,8.9e-05,53.2172,352.0536,94.5846,265.5248,9.7834e-05,1.27e-05,0.0,0 STARLINK-3157,1 49413U 21104F   23172.76504961  .00001270  00000-0  97834-4 0  9997,2 49413  53.2172 352.0536 0000890  94.5846 265.5248 15.08848453 90119,6917.855,95.437,540.335,539.104,0.0
49413.0,STARLINK-3157,PAYLOAD,2023-06-22 18:12:27,15.08841567,7.91e-05,53.2168,347.5926,89.8406,270.2677,0.00010681,1.413e-05,0.0,0 STARLINK-3157,1 49413U 21104F   23173.75865478  .00001413  00000-0  10681-3 0  9993,2 49413  53.2168 347.5926 0000791  89.8406 270.2677 15.08841567 90269,6917.876,95.437,540.288,539.193,0.0
49413.0,STARLINK-3157,PAYLOAD,2023-06-22 22:58:36,15.08849829,9.44e-05,53.2177,346.6998,95.8804,264.2295,0.00019555,2.827e-05,0.0,0 STARLINK-3157,1 49413U 21104F   23173.95737053  .00002827  00000-0  19555-3 0  9991,2 49413  53.2177 346.6998 0000944  95.8804 264.2295 15.08849829 90298,6917.85,95.437,540.368,539.062,0.0
49413.0,STARLINK-3157,PAYLOAD,2023-06-23 11:41:42,15.08836351,9.46e-05,53.2182,344.3222,88.7881,271.3219,6.1201e-05,6.86e-06,0.0,0 STARLINK-3157,1 49413U 21104F   23174.48729758  .00000686  00000-0  61201-4 0  9990,2 49413  53.2182 344.3222 0000946  88.7881 271.3219 15.08836351 90377,6917.892,95.438,540.411,539.102,0.0
49413.0,STARLINK-3157,PAYLOAD,2023-06-23 18:03:14,15.08847691,9.8e-05,53.2179,343.1338,78.7373,281.3729,0.00014445,2.012e-05,0.0,0 STARLINK-3157,1 49413U 21104F   23174.75225213  .00002012  00000-0  14445-3 0  9999,2 49413  53.2179 343.1338 0000980  78.7373 281.3729 15.08847691 90412,6917.857,95.437,540.4,539.044,0.0
49413.0,STARLINK-3157,PAYLOAD,2023-06-24 17:54:01,15.08847347,9.92e-05,53.2183,338.6721,89.1212,270.9894,0.00023961,3.528e-05,0.0,0 STARLINK-3157,1 49413U 21104F   23175.74585303  .00003528  00000-0  23961-3 0  9994,2 49413  53.2183 338.6721 0000992  89.1212 270.9894 15.08847347 90564,6917.858,95.437,540.409,539.037,0.0
49413.0,STARLINK-3157,PAYLOAD,2023-06-25 03:26:20,15.08829464,8.3e-05,53.2192,336.8872,100.2924,259.8161,-0.00025298,-4.31e-05,0.0,0 STARLINK-3157,1 49413U 21104F   23176.14329680 -.00004310  00000-0 -25298-3 0  9990,2 49413  53.2192 336.8872 0000830 100.2924 259.8161 15.08829464 90627,6917.913,95.438,540.352,539.203,0.0
49413.0,STARLINK-3157,PAYLOAD,2023-06-25 17:44:48,15.08850079,8.92e-05,53.2178,334.2117,100.6423,259.467,0.00060916,9.423e-05,0.0,0 STARLINK-3157,1 49413U 21104F   23176.73945418  .00009423  00000-0  60916-3 0  9992,2 49413  53.2178 334.2117 0000892 100.6423 259.4670 15.08850079 90718,6917.85,95.437,540.332,539.098,0.0
49413.0,STARLINK-3157,PAYLOAD,2023-06-26 09:38:40,15.08848899,0.0001908,53.2169,331.2389,81.2046,278.9162,0.0010426,0.00016348,0.0,0 STARLINK-3157,1 49413U 21104F   23177.40186050  .00016348  00000-0  10426-2 0  9990,2 49413  53.2169 331.2389 0001908  81.2046 278.9162 15.08848899 90810,6917.853,95.437,541.038,538.398,0.0
49413.0,STARLINK-3157,PAYLOAD,2023-06-26 16:00:13,15.0884373,8.81e-05,53.2174,330.049,95.354,264.7553,0.00054558,8.407e-05,0.0,0 STARLINK-3157,1 49413U 21104F   23177.66681914  .00008407  00000-0  54558-3 0  9999,2 49413  53.2174 330.0490 0000881  95.3540 264.7553 15.08843730 90850,6917.869,95.437,540.343,539.125,0.0
49413.0,STARLINK-3157,PAYLOAD,2023-06-27 11:04:51,15.0884115,9.76e-05,53.2174,326.481,81.7478,278.3624,0.00052418,8.065e-05,0.0,0 STARLINK-3157,1 49413U 21104F   23178.46170330  .00008065  00000-0  52418-3 0  9996,2 49413  53.2174 326.4810 0000976  81.7478 278.3624 15.08841150 90976,6917.877,95.437,540.417,539.067,0.0
49413.0,STARLINK-3157,PAYLOAD,2023-06-28 09:20:15,15.08840237,0.0001034,53.2176,322.3182,83.6954,276.4156,0.0001372,1.896e-05,0.0,0 STARLINK-3157,1 49413U 21104F   23179.38906308  .00001896  00000-0  13720-3 0  9998,2 49413  53.2176 322.3182 0001034  83.6954 276.4156 15.08840237 91112,6917.88,95.438,540.46,539.029,0.0
49413.0,STARLINK-3157,PAYLOAD,2023-06-29 15:32:34,15.08845791,8.39e-05,53.2172,316.6686,48.2088,311.8976,0.00010069,1.315e-05,0.0,0 STARLINK-3157,1 49413U 21104F   23180.64762103  .00001315  00000-0  10069-3 0  9991,2 49413  53.2172 316.6686 0000839  48.2088 311.8976 15.08845791 91305,6917.863,95.437,540.308,539.147,0.0
49413.0,STARLINK-3157,PAYLOAD,2023-06-30 15:23:21,15.08839857,0.000107,53.2177,312.2086,87.443,272.6684,5.4588e-05,5.81e-06,0.0,0 STARLINK-3157,1 49413U 21104F   23181.64122436  .00000581  00000-0  54588-4 0  9990,2 49413  53.2177 312.2086 0001070  87.4430 272.6684 15.08839857 91452,6917.881,95.438,540.486,539.006,0.0
49413.0,STARLINK-3157,PAYLOAD,2023-07-01 18:24:54,15.08842416,8.9e-05,53.2186,307.1527,95.1068,265.0025,6.6153e-05,7.65e-06,0.0,0 STARLINK-3157,1 49413U 21104F   23182.76730245  .00000765  00000-0  66153-4 0  9992,2 49413  53.2186 307.1527 0000890  95.1068 265.0025 15.08842416 91626,6917.873,95.437,540.354,539.122,0.0
49413.0,STARLINK-3157,PAYLOAD,2023-07-02 08:43:23,15.08826566,9.74e-05,53.2183,304.4761,94.0265,266.0838,0.00017886,2.559e-05,0.0,0 STARLINK-3157,1 49413U 21104F   23183.36347095  .00002559  00000-0  17886-3 0  9997,2 49413  53.2183 304.4761 0000974  94.0265 266.0838 15.08826566 91714,6917.921,95.438,540.46,539.113,0.0
49413.0,STARLINK-3157,PAYLOAD,2023-07-02 15:04:55,15.08842392,8.93e-05,53.2178,303.2872,87.7757,272.3338,0.00011804,1.592e-05,0.0,0 STARLINK-3157,1 49413U 21104F   23183.62842266  .00001592  00000-0  11804-3 0  9996,2 49413  53.2178 303.2872 0000893  87.7757 272.3338 15.08842392 91757,6917.873,95.437,540.356,539.12,0.0
49413.0,STARLINK-3157,PAYLOAD,2023-07-03 11:44:56,15.0883993,9.04e-05,53.2178,299.4216,96.5157,263.5938,5.1867e-05,5.38e-06,0.0,0 STARLINK-3157,1 49413U 21104F   23184.48954566  .00000538  00000-0  51867-4 0  9991,2 49413  53.2178 299.4216 0000904  96.5157 263.5938 15.08839930 91886,6917.881,95.438,540.371,539.12,0.0
49413.0,STARLINK-3157,PAYLOAD,2023-07-04 14:46:30,15.08839722,9.63e-05,53.2182,294.3668,102.6382,257.4718,4.5311e-05,4.33e-06,0.0,0 STARLINK-3157,1 49413U 21104F   23185.61562666  .00000433  00000-0  45311-4 0  9994,2 49413  53.2182 294.3668 0000963 102.6382 257.4718 15.08839722 92057,6917.881,95.438,540.412,539.08,0.0
49413.0,STARLINK-3157,PAYLOAD,2023-07-06 06:31:08,15.08834884,0.0001076,53.2181,286.932,88.6208,271.4907,0.00013534,1.867e-05,0.0,0 STARLINK-3157,1 49413U 21104F   23187.27162982  .00001867  00000-0  13534-3 0  9998,2 49413  53.2181 286.9320 0001076  88.6208 271.4907 15.08834884 92302,6917.896,95.438,540.505,539.017,0.0
49413.0,STARLINK-3157,PAYLOAD,2023-07-07 00:00:22,15.08845612,9.34e-05,53.2176,283.6618,82.0406,278.0692,8.1618e-05,1.012e-05,0.0,0 STARLINK-3157,1 49413U 21104F   23188.00026342  .00001012  00000-0  81618-4 0  9990,2 49413  53.2176 283.6618 0000934  82.0406 278.0692 15.08845612 92417,6917.863,95.437,540.374,539.082,0.0
49413.0,STARLINK-3157,PAYLOAD,2023-07-08 06:12:42,15.08845845,0.0001153,53.2173,278.012,87.1851,272.9273,-1.5525e-05,-5.35e-06,0.0,0 STARLINK-3157,1 49413U 21104F   23189.25882505 -.00000535  00000-0 -15525-4 0  9994,2 49413  53.2173 278.0120 0001153  87.1851 272.9273 15.08845845 92601,6917.863,95.437,540.525,538.93,0.0
